     2              NAVIGATION DATA                         RINEX VERSION / TYPE
CCRINEXN V1.6.0 UX  CDDIS               20-NOV-23 10:09     PGM / RUN BY / DATE 
IGS BROADCAST EPHEMERIS FILE                                COMMENT             
    0.1956D-07 -0.1490D-07 -0.1192D-06  0.1788D-06          ION ALPHA           
    0.1290D+06 -0.1475D+06  0.0000D+00 -0.6554D+05          ION BETA            
    0.279396772385D-08 0.106581410364D-13   319488     2289 DELTA-UTC: A0,A1,T,W
    18                                                      LEAP SECONDS        
                                                            END OF HEADER       
29 23 11 20  4  0  0.0-0.610181596130D-03 0.113686837722D-12 0.000000000000D+00
    0.260000000000D+02 0.366875000000D+02 0.424589114412D-08 0.294905007177D+01
    0.197440385818D-05 0.250786705874D-02 0.933557748795D-05 0.515368745232D+04
    0.100800000000D+06-0.353902578354D-07-0.185010034913D+01 0.204890966415D-07
    0.973929518931D+00 0.207062500000D+03 0.257402091631D+01-0.787139930395D-08
   -0.259296515026D-09 0.100000000000D+01 0.228900000000D+04 0.000000000000D+00
    0.200000000000D+01 0.000000000000D+00-0.977888703346D-08 0.260000000000D+02
    0.936180000000D+05 0.400000000000D+01 0.000000000000D+00 0.000000000000D+00
30 23 11 20  4  0  0.0-0.466375611723D-03 0.409272615798D-11 0.000000000000D+00
    0.850000000000D+02 0.153437500000D+02 0.513414242907D-08 0.933756515736D-01
    0.860542058945D-06 0.659808854107D-02 0.907853245735D-05 0.515373113251D+04
    0.100800000000D+06 0.596046447754D-07 0.226777353588D+01 0.167638063431D-06
    0.935341885910D+00 0.190812500000D+03-0.255400714076D+01-0.837499170916D-08
    0.346443002170D-09 0.100000000000D+01 0.228900000000D+04 0.000000000000D+00
    0.200000000000D+01 0.000000000000D+00 0.372529029846D-08 0.850000000000D+02
    0.936180000000D+05 0.400000000000D+01 0.000000000000D+00 0.000000000000D+00
31 23 11 20  4  0  0.0-0.225902069360D-03-0.341060513165D-12 0.000000000000D+00
    0.210000000000D+02 0.115937500000D+02 0.464947938377D-08-0.665222064735D+00
    0.864267349243D-06 0.106081049889D-01 0.884570181370D-05 0.515364891624D+04
    0.100800000000D+06 0.130385160446D-06 0.228503155559D+01 0.931322574615D-07
    0.954259855359D+00 0.202593750000D+03 0.625985349591D+00-0.814498212834D-08
    0.310370071016D-09 0.100000000000D+01 0.228900000000D+04 0.000000000000D+00
    0.200000000000D+01 0.000000000000D+00-0.130385160446D-07 0.210000000000D+02
    0.936180000000D+05 0.400000000000D+01 0.000000000000D+00 0.000000000000D+00
32 23 11 20  4  0  0.0-0.587735790759D-03-0.432009983342D-11 0.000000000000D+00
    0.700000000000D+02-0.917187500000D+02 0.431732269096D-08-0.251539324105D+01
   -0.461935997009D-05 0.714661681559D-02 0.848993659020D-05 0.515360050774D+04
    0.100800000000D+06-0.111758708954D-07 0.120586945161D+01-0.782310962677D-07
    0.960380321318D+00 0.215843750000D+03-0.222299573909D+01-0.778496713227D-08
    0.632169189527D-10 0.100000000000D+01 0.228900000000D+04 0.000000000000D+00
    0.200000000000D+01 0.000000000000D+00 0.465661287308D-09 0.700000000000D+02
    0.936180000000D+05 0.400000000000D+01 0.000000000000D+00 0.000000000000D+00
 5 23 11 20  5 59 44.0-0.151058658958D-03-0.147792889038D-11 0.000000000000D+00
    0.500000000000D+01-0.449062500000D+02 0.451661670664D-08-0.187457587561D+01
   -0.221282243729D-05 0.587108731270D-02 0.369176268578D-05 0.515376215553D+04
    0.107984000000D+06 0.335276126862D-07 0.121294449795D+00 0.353902578354D-07
    0.968858468478D+00 0.311687500000D+03 0.124160849494D+01-0.824820071352D-08
    0.175007289756D-10 0.100000000000D+01 0.228900000000D+04 0.000000000000D+00
    0.200000000000D+01 0.000000000000D+00-0.111758708954D-07 0.500000000000D+01
    0.106926000000D+06 0.400000000000D+01 0.000000000000D+00 0.000000000000D+00
 9 23 11 20  5 59 44.0 0.234879553318D-05 0.113686837722D-10 0.000000000000D+00
    0.500000000000D+02-0.764062500000D+02 0.455876131928D-08-0.171290475224D+01
   -0.406615436077D-05 0.297500449233D-02 0.854581594467D-05 0.515377665520D+04
    0.107984000000D+06-0.540167093277D-07 0.119192185020D+01 0.670552253723D-07
    0.956857989090D+00 0.212718750000D+03 0.198716456428D+01-0.806426448041D-08
   -0.646455498895D-10 0.100000000000D+01 0.228900000000D+04 0.000000000000D+00
    0.200000000000D+01 0.000000000000D+00 0.931322574616D-09 0.500000000000D+02
    0.100818000000D+06 0.400000000000D+01 0.000000000000D+00 0.000000000000D+00
30 23 11 20  5 59 44.0-0.466345343739D-03 0.409272615798D-11 0.000000000000D+00
    0.500000000000D+01 0.171250000000D+02 0.509878381338D-08 0.114114244224D+01
    0.103190541267D-05 0.659847666975D-02 0.933930277824D-05 0.515373211288D+04
    0.107984000000D+06-0.158324837685D-06 0.226771479387D+01 0.540167093277D-07
    0.935343931069D+00 0.187812500000D+03-0.255395843291D+01-0.828641659108D-08
    0.158578033983D-09 0.100000000000D+01 0.228900000000D+04 0.000000000000D+00
    0.200000000000D+01 0.000000000000D+00 0.372529029846D-08 0.500000000000D+01
    0.100818000000D+06 0.400000000000D+01 0.000000000000D+00 0.000000000000D+00
 1 23 11 20  6  0  0.0 0.163233838975D-03 0.113686837722D-12 0.000000000000D+00
    0.580000000000D+02 0.549687500000D+02 0.388516183259D-08 0.196902416651D+01
    0.276230275631D-05 0.129333891673D-01 0.679679214954D-05 0.515363287544D+04
    0.108000000000D+06-0.251457095146D-06-0.858625573842D+00-0.270083546638D-06
    0.990494276394D+00 0.263500000000D+03 0.990149741631D+00-0.778925302508D-08
    0.200722646618D-09 0.100000000000D+01 0.228900000000D+04 0.000000000000D+00
    0.280000000000D+01 0.630000000000D+02 0.512227416039D-08 0.580000000000D+02
    0.102846000000D+06 0.400000000000D+01 0.000000000000D+00 0.000000000000D+00
 2 23 11 20  6  0  0.0-0.526587478817D-03 0.511590769747D-11 0.000000000000D+00
    0.900000000000D+02 0.671250000000D+02 0.433303763127D-08-0.171142582837D+01
    0.394880771637D-05 0.162213686854D-01 0.713393092155D-05 0.515373118019D+04
    0.108000000000D+06-0.100582838059D-06-0.961121574594D+00 0.393018126488D-06
    0.967578574617D+00 0.247750000000D+03-0.131036592116D+01-0.799640451092D-08
    0.154649298907D-09 0.100000000000D+01 0.228900000000D+04 0.000000000000D+00
    0.200000000000D+01 0.000000000000D+00-0.176951289177D-07 0.900000000000D+02
    0.100818000000D+06 0.400000000000D+01 0.000000000000D+00 0.000000000000D+00
 3 23 11 20  6  0  0.0-0.214064493775D-05 0.259205990005D-10 0.000000000000D+00
    0.720000000000D+02-0.407500000000D+02 0.426874923911D-08 0.784343115656D+00
   -0.217184424400D-05 0.506804976612D-02 0.404939055443D-05 0.515356476212D+04
    0.108000000000D+06-0.558793544769D-08 0.170144050840D+00 0.726431608200D-07
    0.981844370948D+00 0.311406250000D+03 0.111694647209D+01-0.820177020808D-08
   -0.210723063176D-10 0.100000000000D+01 0.228900000000D+04 0.000000000000D+00
    0.200000000000D+01 0.000000000000D+00 0.186264514923D-08 0.720000000000D+02
    0.100818000000D+06 0.400000000000D+01 0.000000000000D+00 0.000000000000D+00
 4 23 11 20  6  0  0.0 0.217766501009D-03 0.103455022327D-10 0.000000000000D+00
    0.100000000000D+02-0.759687500000D+02 0.435303846438D-08-0.246912602688D+01
   -0.402517616749D-05 0.271040073130D-02 0.895187258720D-05 0.515361060142D+04
    0.108000000000D+06-0.298023223877D-07 0.125000682675D+01-0.745058059692D-08
    0.963405862658D+00 0.208750000000D+03-0.305328124259D+01-0.791175812791D-08
   -0.785747015231D-11 0.100000000000D+01 0.228900000000D+04 0.000000000000D+00
    0.200000000000D+01 0.000000000000D+00-0.419095158577D-08 0.266000000000D+03
    0.100818000000D+06 0.400000000000D+01 0.000000000000D+00 0.000000000000D+00
 6 23 11 20  6  0  0.0 0.501162372529D-03-0.103455022327D-10 0.000000000000D+00
    0.660000000000D+02 0.534375000000D+02 0.395337895982D-08 0.214321505106D+01
    0.291690230370D-05 0.299551698845D-02 0.599026679993D-05 0.515378186226D+04
    0.108000000000D+06 0.856816768646D-07-0.866971755551D+00 0.149011611938D-07
    0.989635765845D+00 0.277750000000D+03-0.828297798660D+00-0.787175646168D-08
    0.821462788651D-10 0.100000000000D+01 0.228900000000D+04 0.000000000000D+00
    0.200000000000D+01 0.000000000000D+00 0.372529029846D-08 0.660000000000D+02
    0.100818000000D+06 0.400000000000D+01 0.000000000000D+00 0.000000000000D+00
 7 23 11 20  6  0  0.0 0.881589949131D-05-0.989075488178D-11 0.000000000000D+00
    0.370000000000D+02 0.834375000000D+01 0.481055752189D-08 0.123256655670D+01
    0.512227416038D-06 0.176489776932D-01 0.993162393570D-05 0.515370089722D+04
    0.108000000000D+06-0.342726707459D-06 0.226425766975D+01 0.447034835815D-07
    0.950209213673D+00 0.188625000000D+03-0.216616277465D+01-0.831463205208D-08
    0.964325882329D-10 0.100000000000D+01 0.228900000000D+04 0.000000000000D+00
    0.200000000000D+01 0.000000000000D+00-0.111758708954D-07 0.370000000000D+02
    0.103818000000D+06 0.400000000000D+01 0.000000000000D+00 0.000000000000D+00
 8 23 11 20  6  0  0.0-0.152957160026D-03-0.181898940355D-11 0.000000000000D+00
    0.730000000000D+02 0.207187500000D+02 0.461269213714D-08-0.222805614243D+01
    0.828877091408D-06 0.893253937829D-02 0.885315239429D-05 0.515378097534D+04
    0.108000000000D+06-0.614672899246D-07-0.195650170186D+01-0.132247805595D-06
    0.955949275582D+00 0.209343750000D+03 0.276755661470D+00-0.801604818630D-08
   -0.156077929844D-09 0.100000000000D+01 0.228900000000D+04 0.000000000000D+00
    0.200000000000D+01 0.000000000000D+00 0.512227416039D-08 0.730000000000D+02
    0.100818000000D+06 0.400000000000D+01 0.000000000000D+00 0.000000000000D+00
